{
  "type": "FeatureCollection",
  "features": [
    {
      "type": "Feature",
      "properties": {
        "norad_id": 44794,
        "name": "BEIDOU-3 M21 (C43)",
        "group": "beidou",
        "lat": -46.89967966487253,
        "lon": 176.73775865002938,
        "alt_km": 21540.675532864265,
        "timestamp": "2025-12-21T07:34:34.783386+00:00",
        "meta_object_name": "BEIDOU-3 M21 (C43)",
        "meta_object_id": "2019-078B",
        "meta_epoch": "2025-12-16T15:43:55.727904",
        "meta_mean_motion": 1.86227668,
        "meta_eccentricity": 0.00041169,
        "meta_inclination": 54.078,
        "meta_ra_of_asc_node": 306.2132,
        "meta_arg_of_pericenter": 11.942,
        "meta_mean_anomaly": 348.0544,
        "meta_ephemeris_type": 0,
        "meta_classification_type": "U",
        "meta_norad_cat_id": 44794,
        "meta_element_set_no": 999,
        "meta_rev_at_epoch": 4125,
        "meta_bstar": 0,
        "meta_mean_motion_dot": -9.5e-07,
        "meta_mean_motion_ddot": 0,
        "tle_line1": "1 44794U 19078B   25350.65550611 -.00000095  00000+0  00000+0 0  9990",
        "tle_line2": "2 44794  54.0780 306.2132 0004116  11.9420 348.0544  1.86227668 41256"
      },
      "geometry": {
        "type": "Point",
        "coordinates": [
          176.73775865002938,
          -46.89967966487253
        ]
      }
    },
    {
      "type": "Feature",
      "properties": {
        "norad_id": 44864,
        "name": "BEIDOU-3 M19 (C41)",
        "group": "beidou",
        "lat": 55.199149542457725,
        "lon": 141.46215091387023,
        "alt_km": 21567.898509161267,
        "timestamp": "2025-12-21T07:34:34.783396+00:00",
        "meta_object_name": "BEIDOU-3 M19 (C41)",
        "meta_object_id": "2019-090A",
        "meta_epoch": "2025-12-20T17:56:37.822272",
        "meta_mean_motion": 1.86231652,
        "meta_eccentricity": 0.00182855,
        "meta_inclination": 56.3995,
        "meta_ra_of_asc_node": 68.6961,
        "meta_arg_of_pericenter": 285.0297,
        "meta_mean_anomaly": 134.3435,
        "meta_ephemeris_type": 0,
        "meta_classification_type": "U",
        "meta_norad_cat_id": 44864,
        "meta_element_set_no": 999,
        "meta_rev_at_epoch": 4091,
        "meta_bstar": 0,
        "meta_mean_motion_dot": -4e-07,
        "meta_mean_motion_ddot": 0,
        "tle_line1": "1 44864U 19090A   25354.74765998 -.00000040  00000+0  00000+0 0  9992",
        "tle_line2": "2 44864  56.3995  68.6961 0018285 285.0297 134.3435  1.86231652 40919"
      },
      "geometry": {
        "type": "Point",
        "coordinates": [
          141.46215091387023,
          55.199149542457725
        ]
      }
    },
    {
      "type": "Feature",
      "properties": {
        "norad_id": 44865,
        "name": "BEIDOU-3 M20 (C42)",
        "group": "beidou",
        "lat": 8.58457049807925,
        "lon": -117.02092946017265,
        "alt_km": 21553.38912369004,
        "timestamp": "2025-12-21T07:34:34.783406+00:00",
        "meta_object_name": "BEIDOU-3 M20 (C42)",
        "meta_object_id": "2019-090B",
        "meta_epoch": "2025-12-20T13:54:30.736224",
        "meta_mean_motion": 1.86231557,
        "meta_eccentricity": 0.00154748,
        "meta_inclination": 56.4009,
        "meta_ra_of_asc_node": 68.736,
        "meta_arg_of_pericenter": 297.1994,
        "meta_mean_anomaly": 99.0588,
        "meta_ephemeris_type": 0,
        "meta_classification_type": "U",
        "meta_norad_cat_id": 44865,
        "meta_element_set_no": 999,
        "meta_rev_at_epoch": 4089,
        "meta_bstar": 0,
        "meta_mean_motion_dot": -4.2e-07,
        "meta_mean_motion_ddot": 0,
        "tle_line1": "1 44865U 19090B   25354.57952241 -.00000042  00000+0  00000+0 0  9995",
        "tle_line2": "2 44865  56.4009  68.7360 0015474 297.1994  99.0588  1.86231557 40893"
      },
      "geometry": {
        "type": "Point",
        "coordinates": [
          -117.02092946017265,
          8.58457049807925
        ]
      }
    },
    {
      "type": "Feature",
      "properties": {
        "norad_id": 45344,
        "name": "BEIDOU-3 G2 (C60)",
        "group": "beidou",
        "lat": -2.197188788194043,
        "lon": -76.21142934319857,
        "alt_km": 35777.28144843183,
        "timestamp": "2025-12-21T07:34:34.783416+00:00",
        "meta_object_name": "BEIDOU-3 G2 (C60)",
        "meta_object_id": "2020-017A",
        "meta_epoch": "2025-12-19T13:38:45.370752",
        "meta_mean_motion": 1.00273166,
        "meta_eccentricity": 0.0002079,
        "meta_inclination": 2.5096,
        "meta_ra_of_asc_node": 44.0024,
        "meta_arg_of_pericenter": 233.0917,
        "meta_mean_anomaly": 96.0359,
        "meta_ephemeris_type": 0,
        "meta_classification_type": "U",
        "meta_norad_cat_id": 45344,
        "meta_element_set_no": 999,
        "meta_rev_at_epoch": 2145,
        "meta_bstar": 0,
        "meta_mean_motion_dot": -1.18e-06,
        "meta_mean_motion_ddot": 0,
        "tle_line1": "1 45344U 20017A   25353.56858068 -.00000118  00000+0  00000+0 0  9993",
        "tle_line2": "2 45344   2.5096  44.0024 0002079 233.0917  96.0359  1.00273166 21451"
      },
      "geometry": {
        "type": "Point",
        "coordinates": [
          -76.21142934319857,
          -2.197188788194043
        ]
      }
    },
    {
      "type": "Feature",
      "properties": {
        "norad_id": 45807,
        "name": "BEIDOU-3 G3 (C61)",
        "group": "beidou",
        "lat": -1.879655878976008,
        "lon": -45.72961163937337,
        "alt_km": 35774.02879422883,
        "timestamp": "2025-12-21T07:34:34.783426+00:00",
        "meta_object_name": "BEIDOU-3 G3 (C61)",
        "meta_object_id": "2020-040A",
        "meta_epoch": "2025-12-20T22:18:59.813280",
        "meta_mean_motion": 1.00270204,
        "meta_eccentricity": 0.00064792,
        "meta_inclination": 2.01,
        "meta_ra_of_asc_node": 66.65,
        "meta_arg_of_pericenter": 309.4052,
        "meta_mean_anomaly": 159.0249,
        "meta_ephemeris_type": 0,
        "meta_classification_type": "U",
        "meta_norad_cat_id": 45807,
        "meta_element_set_no": 999,
        "meta_rev_at_epoch": 2028,
        "meta_bstar": 0,
        "meta_mean_motion_dot": -3.32e-06,
        "meta_mean_motion_ddot": 0,
        "tle_line1": "1 45807U 20040A   25354.92985895 -.00000332  00000+0  00000+0 0  9991",
        "tle_line2": "2 45807   2.0100  66.6500 0006479 309.4052 159.0249  1.00270204 20289"
      },
      "geometry": {
        "type": "Point",
        "coordinates": [
          -45.72961163937337,
          -1.879655878976008
        ]
      }
    },
    {
      "type": "Feature",
      "properties": {
        "norad_id": 56564,
        "name": "BEIDOU-3 G4 (C62)",
        "group": "beidou",
        "lat": 0.7006267403689658,
        "lon": 3.8210441201054106,
        "alt_km": 35797.05658127319,
        "timestamp": "2025-12-21T07:34:34.783437+00:00",
        "meta_object_name": "BEIDOU-3 G4 (C62)",
        "meta_object_id": "2023-066A",
        "meta_epoch": "2025-12-20T20:50:23.299872",
        "meta_mean_motion": 1.00271472,
        "meta_eccentricity": 0.00027048,
        "meta_inclination": 0.798,
        "meta_ra_of_asc_node": 302.6735,
        "meta_arg_of_pericenter": 226.49,
        "meta_mean_anomaly": 33.1906,
        "meta_ephemeris_type": 0,
        "meta_classification_type": "U",
        "meta_norad_cat_id": 56564,
        "meta_element_set_no": 999,
        "meta_rev_at_epoch": 960,
        "meta_bstar": 0,
        "meta_mean_motion_dot": -8.7e-07,
        "meta_mean_motion_ddot": 0,
        "tle_line1": "1 56564U 23066A   25354.86832523 -.00000087  00000+0  00000+0 0  9993",
        "tle_line2": "2 56564   0.7980 302.6735 0002704 226.4900  33.1906  1.00271472  9605"
      },
      "geometry": {
        "type": "Point",
        "coordinates": [
          3.8210441201054106,
          0.7006267403689658
        ]
      }
    },
    {
      "type": "Feature",
      "properties": {
        "norad_id": 58654,
        "name": "BEIDOU-3 M28 (C50)",
        "group": "beidou",
        "lat": -9.824498918881485,
        "lon": -104.86419885845645,
        "alt_km": 21528.48990391775,
        "timestamp": "2025-12-21T07:34:34.783447+00:00",
        "meta_object_name": "BEIDOU-3 M28 (C50)",
        "meta_object_id": "2023-207A",
        "meta_epoch": "2025-12-18T08:16:11.764704",
        "meta_mean_motion": 1.86229821,
        "meta_eccentricity": 0.00026501,
        "meta_inclination": 55.5892,
        "meta_ra_of_asc_node": 68.4116,
        "meta_arg_of_pericenter": 272.4264,
        "meta_mean_anomaly": 87.5728,
        "meta_ephemeris_type": 0,
        "meta_classification_type": "U",
        "meta_norad_cat_id": 58654,
        "meta_element_set_no": 999,
        "meta_rev_at_epoch": 1347,
        "meta_bstar": 0,
        "meta_mean_motion_dot": -6.6e-07,
        "meta_mean_motion_ddot": 0,
        "tle_line1": "1 58654U 23207A   25352.34458061 -.00000066  00000+0  00000+0 0  9991",
        "tle_line2": "2 58654  55.5892  68.4116 0002650 272.4264  87.5728  1.86229821 13471"
      },
      "geometry": {
        "type": "Point",
        "coordinates": [
          -104.86419885845645,
          -9.824498918881485
        ]
      }
    }
  ]
}